NORAD_CAT_ID,OBJECT_NAME,OBJECT_TYPE,EPOCH,MEAN_MOTION,ECCENTRICITY,INCLINATION,RA_OF_ASC_NODE,ARG_OF_PERICENTER,MEAN_ANOMALY,BSTAR,MEAN_MOTION_DOT,MEAN_MOTION_DDOT,TLE_LINE0,TLE_LINE1,TLE_LINE2,SEMIMAJOR_AXIS,PERIOD,APOGEE,PERIGEE,DECAYED
51880.0,STARLINK-3566,PAYLOAD,2022-06-09 22:00:00,15.08844248,0.0002076,53.2185,33.787,50.1553,338.2623,-0.00071351,-0.00011627,0.0,0 STARLINK-3566,1 51880U 22022AE  22160.91667824 -.00011627  00000-0 -71351-3 0  9993,2 51880  53.2185  33.7870 0002076  50.1553 338.2623 15.08844248  1305,6917.8669999999975,95.437,541.169,538.2959999999998,0.0
51880.0,STARLINK-3566,PAYLOAD,2022-06-10 00:00:00,15.08830257,0.00021,53.2187,33.4132,49.3097,72.0104,0.0012970999999999,0.0002041,0.0,0 STARLINK-3566,1 51880U 22022AE  22161.00001157  .00020410  00000-0  12971-2 0  9995,2 51880  53.2187  33.4132 0002100  49.3097  72.0104 15.08830257 16483,6917.91,95.438,541.2280000000002,538.322,0.0
51880.0,STARLINK-3566,PAYLOAD,2022-06-10 14:00:01,15.08836293,0.0001913,53.2188,30.7922,53.5901,358.0321,0.00023167,3.4e-05,0.0,0 STARLINK-3566,1 51880U 22022AE  22161.58334491  .00003400  00000-0  23167-3 0  9998,2 51880  53.2188  30.7922 0001913  53.5901 358.0321 15.08836293  1302,6917.892,95.438,541.08,538.433,0.0
51880.0,STARLINK-3566,PAYLOAD,2022-06-10 22:00:00,15.08839248,0.000208,53.219,29.2979,49.2434,13.944,-0.00051986,-8.552e-05,0.0,0 STARLINK-3566,1 51880U 22022AE  22161.91667824 -.00008552  00000-0 -51986-3 0  9999,2 51880  53.2190  29.2979 0002080  49.2434  13.9440 15.08839248 16622,6917.8830000000025,95.438,541.187,538.309,0.0
51880.0,STARLINK-3566,PAYLOAD,2022-06-11 14:00:01,15.08849256,0.0001921,53.2193,26.3035,53.8075,32.5757,0.00049493,7.6e-05,0.0,0 STARLINK-3566,1 51880U 22022AE  22162.58334491  .00007600  00000-0  49493-3 0  9995,2 51880  53.2193  26.3035 0001921  53.8075  32.5757 15.08849256 16720,6917.852,95.437,541.0459999999998,538.388,0.0
51880.0,STARLINK-3566,PAYLOAD,2022-06-11 22:00:00,15.08838062,0.0002036,53.2193,24.8091,48.6675,49.32899999999999,-0.0007547,-0.00012279,0.0,0 STARLINK-3566,1 51880U 22022AE  22162.91667824 -.00012279  00000-0 -75470-3 0  9995,2 51880  53.2193  24.8091 0002036  48.6675  49.3290 15.08838062  1300,6917.886,95.438,541.16,538.3430000000002,0.0
51880.0,STARLINK-3566,PAYLOAD,2022-06-12 06:00:02,15.08857154,0.0001956,53.2191,23.3121,47.7823,61.8612,-0.0017969,-0.00028786,0.0,0 STARLINK-3566,1 51880U 22022AE  22163.25002315 -.00028786  00000-0 -17969-2 0  9999,2 51880  53.2191  23.3121 0001956  47.7823  61.8612 15.08857154 16824,6917.828,95.436,541.0459999999998,538.34,0.0
51880.0,STARLINK-3566,PAYLOAD,2022-06-12 14:00:01,15.08835898,0.0001807,53.2195,21.8147,53.0971,68.0858,-0.0002707,-4.593e-05,0.0,0 STARLINK-3566,1 51880U 22022AE  22163.58334491 -.00004593  00000-0 -27070-3 0  9993,2 51880  53.2195  21.8147 0001807  53.0971  68.0858 15.08835898  1307,6917.893,95.438,541.008,538.508,0.0
51880.0,STARLINK-3566,PAYLOAD,2022-06-12 22:00:00,15.08827212,0.0001935,53.2193,20.3203,47.1537,85.6216,0.00030059,4.497e-05,0.0,0 STARLINK-3566,1 51880U 22022AE  22163.91667824  .00004497  00000-0  30059-3 0  9991,2 51880  53.2193  20.3203 0001935  47.1537  85.6216 15.08827212  1300,6917.919,95.438,541.123,538.446,0.0
51880.0,STARLINK-3566,PAYLOAD,2022-06-13 06:00:02,15.08854711,0.0001853,53.2189,18.8231,47.6052,96.8136,-0.001443,-0.0002319,0.0,0 STARLINK-3566,1 51880U 22022AE  22164.25002315 -.00023190  00000-0 -14430-2 0  9994,2 51880  53.2189  18.8231 0001853  47.6052  96.8136 15.08854711 16972,6917.835,95.437,540.982,538.419,0.0
51880.0,STARLINK-3566,PAYLOAD,2022-06-13 14:00:01,15.08851036,0.0001735,53.2192,17.3259,53.3399,102.6159,0.00064117,9.934e-05,0.0,0 STARLINK-3566,1 51880U 22022AE  22164.58334491  .00009934  00000-0  64117-3 0  9999,2 51880  53.2192  17.3259 0001735  53.3399 102.6159 15.08851036  1306,6917.847,95.437,540.9119999999998,538.511,0.0
51880.0,STARLINK-3566,PAYLOAD,2022-06-13 22:00:00,15.08837165,0.000185,53.2189,15.8314,46.3045,121.2737,-0.00012843,-2.331e-05,0.0,0 STARLINK-3566,1 51880U 22022AE  22164.91667824 -.00002331  00000-0 -12843-3 0  9990,2 51880  53.2189  15.8314 0001850  46.3045 121.2737 15.08837165 17072,6917.889,95.438,541.034,538.474,0.0
51880.0,STARLINK-3566,PAYLOAD,2022-06-14 14:00:01,15.08821285,0.0001757,53.2187,12.8369,55.605,135.1513,0.0013202,0.00020775,0.0,0 STARLINK-3566,1 51880U 22022AE  22165.58334491  .00020775  00000-0  13202-2 0  9994,2 51880  53.2187  12.8369 0001757  55.6050 135.1513 15.08821285  1303,6917.938,95.439,541.018,538.587,0.0
51880.0,STARLINK-3566,PAYLOAD,2022-06-14 22:00:00,15.08825864,0.0001902,53.2184,11.3424,49.0749,153.2626,8.1333e-05,1.006e-05,0.0,0 STARLINK-3566,1 51880U 22022AE  22165.91667824  .00001006  00000-0  81333-4 0  9998,2 51880  53.2184  11.3424 0001902  49.0749 153.2626 15.08825864  1303,6917.924,95.438,541.104,538.4730000000002,0.0
51880.0,STARLINK-3566,PAYLOAD,2022-06-15 06:00:00,15.08835339,0.0001746,53.218,9.8447,49.1689,164.7496,-0.0024806,-0.00039546,0.0,0 STARLINK-3566,1 51880U 22022AE  22166.25001157 -.00039546  00000-0 -24806-2 0  9999,2 51880  53.2180   9.8447 0001746  49.1689 164.7496 15.08835339 17279,6917.895,95.438,540.9680000000002,538.552,0.0
51880.0,STARLINK-3566,PAYLOAD,2022-06-15 14:00:01,15.08820739,0.000169,53.2182,8.3479,54.838,170.64700000000005,0.00090875,0.00014197,0.0,0 STARLINK-3566,1 51880U 22022AE  22166.58334491  .00014197  00000-0  90875-3 0  9998,2 51880  53.2182   8.3479 0001690  54.8380 170.6470 15.08820739  1302,6917.939,95.439,540.9730000000002,538.635,0.0
51880.0,STARLINK-3566,PAYLOAD,2022-06-15 22:00:00,15.08816681,0.0001873,53.218,6.8532,47.7213,189.3501,0.0020261,0.00032084,0.0,0 STARLINK-3566,1 51880U 22022AE  22166.91667824  .00032084  00000-0  20261-2 0  9990,2 51880  53.2180   6.8532 0001873  47.7213 189.3501 15.08816681 17379,6917.9519999999975,95.439,541.112,538.521,0.0
51880.0,STARLINK-3566,PAYLOAD,2022-06-16 02:00:01,15.08833738,0.0001845,53.2176,6.1047,45.4894,17.3715,0.0016409,0.00025919,0.0,0 STARLINK-3566,1 51880U 22022AE  22167.08334491  .00025919  00000-0  16409-2 0  9998,2 51880  53.2176   6.1047 0001845  45.4894  17.3715 15.08833738  1302,6917.9,95.438,541.0409999999998,538.488,0.0
51880.0,STARLINK-3566,PAYLOAD,2022-06-19 14:00:01,15.08850325,0.0001756,53.2195,350.3917,48.9331,315.6502,-0.00027542,-4.67e-05,0.0,0 STARLINK-3566,1 51880U 22022AE  22170.58334491 -.00004670  00000-0 -27542-3 0  9991,2 51880  53.2195 350.3917 0001756  48.9331 315.6502 15.08850325  1307,6917.849,95.437,540.929,538.499,0.0
51880.0,STARLINK-3566,PAYLOAD,2022-06-19 20:00:01,15.08848999,0.00019,53.2194,349.2708,43.8449,239.4436,-0.001191,-0.00019198,0.0,0 STARLINK-3566,1 51880U 22022AE  22170.83334491 -.00019198  00000-0 -11910-2 0  9991,2 51880  53.2194 349.2708 0001900  43.8449 239.4436 15.08848999 17968,6917.853,95.437,541.0319999999998,538.403,0.0
51880.0,STARLINK-3566,PAYLOAD,2022-06-19 22:00:00,15.08836162,0.000189,53.2194,348.897,42.3467,333.846,0.00016782,2.383e-05,0.0,0 STARLINK-3566,1 51880U 22022AE  22170.91667824  .00002383  00000-0  16782-3 0  9998,2 51880  53.2194 348.8970 0001890  42.3467 333.8460 15.08836162  1302,6917.892,95.438,541.065,538.45,0.0
51880.0,STARLINK-3566,PAYLOAD,2022-06-20 14:00:01,15.088630599999998,0.0001647,53.2196,345.9032,45.5274,353.8355,-0.0026472,-0.00042198,0.0,0 STARLINK-3566,1 51880U 22022AE  22171.58334491 -.00042198  00000-0 -26472-2 0  9999,2 51880  53.2196 345.9032 0001647  45.5274 353.8355 15.08863060  1304,6917.81,95.436,540.814,538.536,0.0
51880.0,STARLINK-3566,PAYLOAD,2022-06-20 22:00:00,15.08837507,0.0001868,53.2192,344.4083,42.0142,8.9608,0.00096318,0.00015073,0.0,0 STARLINK-3566,1 51880U 22022AE  22171.91667824  .00015073  00000-0  96318-3 0  9992,2 51880  53.2192 344.4083 0001868  42.0142   8.9608 15.08837507 18136,6917.888000000001,95.438,541.045,538.461,0.0
51880.0,STARLINK-3566,PAYLOAD,2022-06-21 14:00:01,15.08856515,0.0001763,53.2189,341.4133,49.5988,24.5507,-0.0009009,-0.00014604,0.0,0 STARLINK-3566,1 51880U 22022AE  22172.58334491 -.00014604  00000-0 -90090-3 0  9999,2 51880  53.2189 341.4133 0001763  49.5988  24.5507 15.08856515 18232,6917.83,95.437,540.915,538.475,0.0
51880.0,STARLINK-3566,PAYLOAD,2022-06-21 22:00:00,15.08833394,0.0001849,53.2187,339.9195,43.0107,42.7474,0.00018634,2.678e-05,0.0,0 STARLINK-3566,1 51880U 22022AE  22172.91667824  .00002678  00000-0  18634-3 0  9995,2 51880  53.2187 339.9195 0001849  43.0107  42.7474 15.08833394  1302,6917.901,95.438,541.045,538.486,0.0
51880.0,STARLINK-3566,PAYLOAD,2022-06-22 14:00:01,15.08852141,0.0001689,53.2185,336.9258,48.1881,60.7369,-0.0012985,-0.00020901,0.0,0 STARLINK-3566,1 51880U 22022AE  22173.58334491 -.00020901  00000-0 -12985-2 0  9993,2 51880  53.2185 336.9258 0001689  48.1881  60.7369 15.08852141  1308,6917.843000000003,95.437,540.877,538.54,0.0
51880.0,STARLINK-3566,PAYLOAD,2022-06-22 16:00:00,15.08846286,0.000175,53.2184,336.5523,46.1726,155.6547,-0.00090495,-0.00014664,0.0,0 STARLINK-3566,1 51880U 22022AE  22173.66667824 -.00014664  00000-0 -90495-3 0  9993,2 51880  53.2184 336.5523 0001750  46.1726 155.6547 15.08846286 18395,6917.861,95.437,540.937,538.516,0.0
51880.0,STARLINK-3566,PAYLOAD,2022-06-22 22:00:00,15.08832857,0.0001858,53.218,335.4307,43.3047,77.2207,0.00065877,0.0001021,0.0,0 STARLINK-3566,1 51880U 22022AE  22173.91667824  .00010210  00000-0  65877-3 0  9998,2 51880  53.2180 335.4307 0001858  43.3047  77.2207 15.08832857  1307,6917.901999999999,95.438,541.053,538.482,0.0
51880.0,STARLINK-3566,PAYLOAD,2022-06-23 14:00:01,15.08845456,0.0001824,53.218,332.4369,51.1329,92.5606,-0.0013579,-0.00021838,0.0,0 STARLINK-3566,1 51880U 22022AE  22174.58334491 -.00021838  00000-0 -13579-2 0  9994,2 51880  53.2180 332.4369 0001824  51.1329  92.5606 15.08845456  1307,6917.864000000001,95.437,540.991,538.467,0.0
